start=new Date('2023-06-11T00:00:00.000Z').valueOf();
sats=[{"EPHEMERIS_TYPE":"0","MEAN_ANOMALY":"278.4067","ARG_OF_PERICENTER":"81.7057","ECCENTRICITY":"0.00011660","PERIOD":"95.437","SITE":"AFETR","FILE":"3929709","OBJECT_TYPE":"PAYLOAD","MEAN_ELEMENT_THEORY":"SGP4","LAUNCH_DATE":"2022-09-24","REF_FRAME":"TEME","NORAD_CAT_ID":"53914","REV_AT_EPOCH":"4035","TIME_SYSTEM":"UTC","DECAY_DATE":null,"GP_ID":"233622294","CENTER_NAME":"EARTH","OBJECT_ID":"2022-119AE","CLASSIFICATION_TYPE":"U","EPOCH":"2023-06-10T08:06:54.728352","INCLINATION":"53.2154","TLE_LINE2":"2 53914  53.2154 138.2841 0001166  81.7057 278.4067 15.08841458 40353","MEAN_MOTION_DDOT":"0.0000000000000","BSTAR":"0.00002964400000","RCS_SIZE":"LARGE","PERIAPSIS":"538.934","MEAN_MOTION":"15.08841458","OBJECT_NAME":"STARLINK-5040","RA_OF_ASC_NODE":"138.2841","TLE_LINE1":"1 53914U 22119AE  23161.33813343  .00000184  00000-0  29644-4 0  9990","ELEMENT_SET_NO":"999","SEMIMAJOR_AXIS":"6917.876","COUNTRY_CODE":"US","MEAN_MOTION_DOT":"0.00000184","APOAPSIS":"540.548"},{"ELEMENT_SET_NO":"999","SEMIMAJOR_AXIS":"6917.893","COUNTRY_CODE":"US","MEAN_MOTION_DOT":"-0.00000053","APOAPSIS":"540.556","TLE_LINE1":"1 53915U 22119AF  23161.75031379 -.00000053  00000-0  14786-4 0  9995","RA_OF_ASC_NODE":"136.5900","MEAN_MOTION_DDOT":"0.0000000000000","BSTAR":"0.00001478600000","RCS_SIZE":"LARGE","OBJECT_NAME":"STARLINK-5017","PERIAPSIS":"538.959","MEAN_MOTION":"15.08835937","OBJECT_ID":"2022-119AF","CLASSIFICATION_TYPE":"U","TLE_LINE2":"2 53915  53.2156 136.5900 0001154  91.5250 268.5874 15.08835937 40412","INCLINATION":"53.2156","EPOCH":"2023-06-10T18:00:27.111456","TIME_SYSTEM":"UTC","REV_AT_EPOCH":"4041","DECAY_DATE":null,"GP_ID":"233654865","CENTER_NAME":"EARTH","NORAD_CAT_ID":"53915","REF_FRAME":"TEME","PERIOD":"95.438","ECCENTRICITY":"0.00011540","FILE":"3929969","SITE":"AFETR","MEAN_ELEMENT_THEORY":"SGP4","LAUNCH_DATE":"2022-09-24","OBJECT_TYPE":"PAYLOAD","EPHEMERIS_TYPE":"0","MEAN_ANOMALY":"268.5874","ARG_OF_PERICENTER":"91.5250"},{"TLE_LINE1":"1 53916U 22119AG  23161.83306159 -.00000394  00000-0 -66690-5 0  9997","RA_OF_ASC_NODE":"115.7711","APOAPSIS":"540.481","MEAN_MOTION_DOT":"-0.00000394","COUNTRY_CODE":"US","SEMIMAJOR_AXIS":"6917.903","ELEMENT_SET_NO":"999","INCLINATION":"53.2162","TLE_LINE2":"2 53916  53.2162 115.7711 0001030  89.4140 270.6970 15.08832461 40720","EPOCH":"2023-06-10T19:59:36.521376","CLASSIFICATION_TYPE":"U","OBJECT_ID":"2022-119AG","OBJECT_NAME":"STARLINK-5051","PERIAPSIS":"539.056","MEAN_MOTION":"15.08832461","RCS_SIZE":"LARGE","BSTAR":"-0.00000666900000","MEAN_MOTION_DDOT":"0.0000000000000","NORAD_CAT_ID":"53916","REF_FRAME":"TEME","CENTER_NAME":"EARTH","GP_ID":"233655610","DECAY_DATE":null,"TIME_SYSTEM":"UTC","REV_AT_EPOCH":"4072","ARG_OF_PERICENTER":"89.4140","MEAN_ANOMALY":"270.6970","EPHEMERIS_TYPE":"0","LAUNCH_DATE":"2022-09-24","MEAN_ELEMENT_THEORY":"SGP4","OBJECT_TYPE":"PAYLOAD","FILE":"3929969","SITE":"AFETR","PERIOD":"95.438","ECCENTRICITY":"0.00010300"},{"RA_OF_ASC_NODE":"138.0313","TLE_LINE1":"1 53917U 22119AH  23161.41173806  .00000107  00000-0  24819-4 0  9999","APOAPSIS":"540.577","MEAN_MOTION_DOT":"0.00000107","COUNTRY_CODE":"US","SEMIMAJOR_AXIS":"6917.874","ELEMENT_SET_NO":"999","EPOCH":"2023-06-10T09:52:54.168384","TLE_LINE2":"2 53917  53.2160 138.0313 0001211  90.6131 269.5000 15.08842140 40366","INCLINATION":"53.2160","CLASSIFICATION_TYPE":"U","OBJECT_ID":"2022-119AH","PERIAPSIS":"538.901","MEAN_MOTION":"15.08842140","OBJECT_NAME":"STARLINK-5036","RCS_SIZE":"LARGE","BSTAR":"0.00002481900000","MEAN_MOTION_DDOT":"0.0000000000000","REF_FRAME":"TEME","NORAD_CAT_ID":"53917","GP_ID":"233621543","CENTER_NAME":"EARTH","DECAY_DATE":null,"REV_AT_EPOCH":"4036","TIME_SYSTEM":"UTC","ARG_OF_PERICENTER":"90.6131","MEAN_ANOMALY":"269.5000","EPHEMERIS_TYPE":"0","OBJECT_TYPE":"PAYLOAD","MEAN_ELEMENT_THEORY":"SGP4","LAUNCH_DATE":"2022-09-24","SITE":"AFETR","FILE":"3929709","ECCENTRICITY":"0.00012110","PERIOD":"95.437"},{"FILE":"3929969","SITE":"AFETR","MEAN_ELEMENT_THEORY":"SGP4","LAUNCH_DATE":"2022-09-24","OBJECT_TYPE":"PAYLOAD","PERIOD":"95.438","ECCENTRICITY":"0.00012150","MEAN_ANOMALY":"272.6372","ARG_OF_PERICENTER":"87.4759","EPHEMERIS_TYPE":"0","DECAY_DATE":null,"CENTER_NAME":"EARTH","GP_ID":"233654114","TIME_SYSTEM":"UTC","REV_AT_EPOCH":"4044","NORAD_CAT_ID":"53918","REF_FRAME":"TEME","RCS_SIZE":"LARGE","OBJECT_NAME":"STARLINK-5012","PERIAPSIS":"538.904","MEAN_MOTION":"15.08840230","MEAN_MOTION_DDOT":"0.0000000000000","BSTAR":"0.00002747400000","CLASSIFICATION_TYPE":"U","TLE_LINE2":"2 53918  53.2154 135.5854 0001215  87.4759 272.6372 15.08840230 40440","INCLINATION":"53.2154","EPOCH":"2023-06-10T22:20:04.538976","OBJECT_ID":"2022-119AJ","COUNTRY_CODE":"US","MEAN_MOTION_DOT":"0.00000149","APOAPSIS":"540.585","ELEMENT_SET_NO":"999","SEMIMAJOR_AXIS":"6917.880","TLE_LINE1":"1 53918U 22119AJ  23161.93060809  .00000149  00000-0  27474-4 0  9991","RA_OF_ASC_NODE":"135.5854"},{"PERIOD":"95.438","ECCENTRICITY":"0.00011050","MEAN_ELEMENT_THEORY":"SGP4","LAUNCH_DATE":"2022-09-24","OBJECT_TYPE":"PAYLOAD","FILE":"3929709","SITE":"AFETR","EPHEMERIS_TYPE":"0","ARG_OF_PERICENTER":"90.9203","MEAN_ANOMALY":"269.1915","TIME_SYSTEM":"UTC","REV_AT_EPOCH":"4035","GP_ID":"233622041","CENTER_NAME":"EARTH","DECAY_DATE":null,"NORAD_CAT_ID":"53919","REF_FRAME":"TEME","BSTAR":"0.00001920900000","MEAN_MOTION_DDOT":"0.0000000000000","OBJECT_NAME":"STARLINK-5023","MEAN_MOTION":"15.08839740","PERIAPSIS":"538.982","RCS_SIZE":"LARGE","OBJECT_ID":"2022-119AK","TLE_LINE2":"2 53919  53.2157 138.2385 0001105  90.9203 269.1915 15.08839740 40352","INCLINATION":"53.2157","EPOCH":"2023-06-10T07:56:17.934432","CLASSIFICATION_TYPE":"U","SEMIMAJOR_AXIS":"6917.881","ELEMENT_SET_NO":"999","APOAPSIS":"540.511","COUNTRY_CODE":"US","MEAN_MOTION_DOT":"0.00000018","TLE_LINE1":"1 53919U 22119AK  23161.33076313  .00000018  00000-0  19209-4 0  9995","RA_OF_ASC_NODE":"138.2385"},{"SEMIMAJOR_AXIS":"6917.889","ELEMENT_SET_NO":"999","APOAPSIS":"540.586","MEAN_MOTION_DOT":"0.00000366","COUNTRY_CODE":"US","RA_OF_ASC_NODE":"138.1951","TLE_LINE1":"1 53920U 22119AL  23161.32339664  .00000366  00000-0  41054-4 0  9996","BSTAR":"0.00004105400000","MEAN_MOTION_DDOT":"0.0000000000000","MEAN_MOTION":"15.08837072","PERIAPSIS":"538.923","OBJECT_NAME":"STARLINK-5025","RCS_SIZE":"LARGE","OBJECT_ID":"2022-119AL","EPOCH":"2023-06-10T07:45:41.469696","INCLINATION":"53.2156","TLE_LINE2":"2 53920  53.2156 138.1951 0001202  87.7737 272.3393 15.08837072 40357","CLASSIFICATION_TYPE":"U","REV_AT_EPOCH":"4035","TIME_SYSTEM":"UTC","GP_ID":"233621293","CENTER_NAME":"EARTH","DECAY_DATE":null,"REF_FRAME":"TEME","NORAD_CAT_ID":"53920","ECCENTRICITY":"0.00012020","PERIOD":"95.438","OBJECT_TYPE":"PAYLOAD","LAUNCH_DATE":"2022-09-24","MEAN_ELEMENT_THEORY":"SGP4","SITE":"AFETR","FILE":"3929709","EPHEMERIS_TYPE":"0","ARG_OF_PERICENTER":"87.7737","MEAN_ANOMALY":"272.3393"},{"EPHEMERIS_TYPE":"0","MEAN_ANOMALY":"275.3237","ARG_OF_PERICENTER":"84.7874","ECCENTRICITY":"0.00010470","PERIOD":"95.438","SITE":"AFETR","FILE":"3929709","OBJECT_TYPE":"PAYLOAD","MEAN_ELEMENT_THEORY":"SGP4","LAUNCH_DATE":"2022-09-24","REF_FRAME":"TEME","NORAD_CAT_ID":"53922","REV_AT_EPOCH":"4035","TIME_SYSTEM":"UTC","DECAY_DATE":null,"CENTER_NAME":"EARTH","GP_ID":"233621044","OBJECT_ID":"2022-119AN","CLASSIFICATION_TYPE":"U","EPOCH":"2023-06-10T07:40:23.189376","TLE_LINE2":"2 53922  53.2160 138.1725 0001047  84.7874 275.3237 15.08835986 40351","INCLINATION":"53.2160","MEAN_MOTION_DDOT":"0.0000000000000","BSTAR":"0.00003943400000","RCS_SIZE":"LARGE","MEAN_MOTION":"15.08835986","PERIAPSIS":"539.033","OBJECT_NAME":"STARLINK-5002","RA_OF_ASC_NODE":"138.1725","TLE_LINE1":"1 53922U 22119AN  23161.31971284  .00000340  00000-0  39434-4 0  9998","ELEMENT_SET_NO":"999","SEMIMAJOR_AXIS":"6917.893","MEAN_MOTION_DOT":"0.00000340","COUNTRY_CODE":"US","APOAPSIS":"540.482"},{"ELEMENT_SET_NO":"999","SEMIMAJOR_AXIS":"6917.880","MEAN_MOTION_DOT":"-0.00000627","COUNTRY_CODE":"US","APOAPSIS":"540.633","TLE_LINE1":"1 53923U 22119AP  23161.19459909 -.00000627  00000-0 -21290-4 0  9991","RA_OF_ASC_NODE":"138.8121","MEAN_MOTION_DDOT":"0.0000000000000","BSTAR":"-0.00002129000000","RCS_SIZE":"LARGE","OBJECT_NAME":"STARLINK-5004","MEAN_MOTION":"15.08840066","PERIAPSIS":"538.857","OBJECT_ID":"2022-119AP","CLASSIFICATION_TYPE":"U","INCLINATION":"53.2152","TLE_LINE2":"2 53923  53.2152 138.8121 0001284  68.4391 291.6738 15.08840066 40336","EPOCH":"2023-06-10T04:40:13.361376","TIME_SYSTEM":"UTC","REV_AT_EPOCH":"4033","DECAY_DATE":null,"GP_ID":"233622295","CENTER_NAME":"EARTH","NORAD_CAT_ID":"53923","REF_FRAME":"TEME","PERIOD":"95.438","ECCENTRICITY":"0.00012840","FILE":"3929709","SITE":"AFETR","LAUNCH_DATE":"2022-09-24","MEAN_ELEMENT_THEORY":"SGP4","OBJECT_TYPE":"PAYLOAD","EPHEMERIS_TYPE":"0","MEAN_ANOMALY":"291.6738","ARG_OF_PERICENTER":"68.4391"},{"EPHEMERIS_TYPE":"0","MEAN_ANOMALY":"267.7558","ARG_OF_PERICENTER":"92.3583","PERIOD":"95.438","ECCENTRICITY":"0.00013040","FILE":"3929709","SITE":"AFETR","MEAN_ELEMENT_THEORY":"SGP4","LAUNCH_DATE":"2022-09-24","OBJECT_TYPE":"PAYLOAD","NORAD_CAT_ID":"53924","REF_FRAME":"TEME","TIME_SYSTEM":"UTC","REV_AT_EPOCH":"4042","DECAY_DATE":null,"CENTER_NAME":"EARTH","GP_ID":"233622541","OBJECT_ID":"2022-119AQ","CLASSIFICATION_TYPE":"U","TLE_LINE2":"2 53924  53.2157 133.2644 0001304  92.3583 267.7558 15.08838148 40425","INCLINATION":"53.2157","EPOCH":"2023-06-10T07:59:37.022496","MEAN_MOTION_DDOT":"0.0000000000000","BSTAR":"0.00001099900000","RCS_SIZE":"LARGE","OBJECT_NAME":"STARLINK-5001","PERIAPSIS":"538.849","MEAN_MOTION":"15.08838148","TLE_LINE1":"1 53924U 22119AQ  23161.33306739 -.00000113  00000-0  10999-4 0  9993","RA_OF_ASC_NODE":"133.2644","ELEMENT_SET_NO":"999","SEMIMAJOR_AXIS":"6917.886","COUNTRY_CODE":"US","MEAN_MOTION_DOT":"-0.00000113","APOAPSIS":"540.653"}];
